NORAD_CAT_ID,OBJECT_NAME,OBJECT_TYPE,EPOCH,MEAN_MOTION,ECCENTRICITY,INCLINATION,RA_OF_ASC_NODE,ARG_OF_PERICENTER,MEAN_ANOMALY,BSTAR,MEAN_MOTION_DOT,MEAN_MOTION_DDOT,TLE_LINE0,TLE_LINE1,TLE_LINE2,SEMIMAJOR_AXIS,PERIOD,APOGEE,PERIGEE,DECAYED
52660.0,STARLINK-4081,PAYLOAD,2023-11-14 11:17:42,15.08838375,0.0001641,53.2198,352.9495,89.0775,271.0405,5.1287e-05,5.28e-06,0.0,0 STARLINK-4081,1 52660U 22053E   23318.47063304  .00000528  00000-0  51287-4 0  9997,2 52660  53.2198 352.9495 0001641  89.0775 271.0405 15.08838375 83361,6917.885,95.438,540.886,538.615,0.0
52660.0,STARLINK-4081,PAYLOAD,2023-11-14 19:14:38,15.08837565,0.000157,53.2193,351.4616,87.2499,272.8673,2.0874e-05,4.4e-07,0.0,0 STARLINK-4081,1 52660U 22053E   23318.80183444  .00000044  00000-0  20874-4 0  9993,2 52660  53.2193 351.4616 0001570  87.2499 272.8673 15.08837565 83411,6917.888,95.438,540.839,538.667,0.0
52660.0,STARLINK-4081,PAYLOAD,2023-11-15 09:33:06,15.0883829,0.0001617,53.219,348.7858,93.6182,266.4995,-4.5189e-05,-1.007e-05,0.0,0 STARLINK-4081,1 52660U 22053E   23319.39799733 -.00001007  00000-0 -45189-4 0  9990,2 52660  53.2190 348.7858 0001617  93.6182 266.4995 15.08838290 83509,6917.886,95.438,540.869,538.632,0.0
52660.0,STARLINK-4081,PAYLOAD,2023-11-16 01:26:58,15.08835245,0.0001644,53.2179,345.8114,92.0897,268.0284,8.5015e-05,1.065e-05,0.0,0 STARLINK-4081,1 52660U 22053E   23320.06039666  .00001065  00000-0  85015-4 0  9992,2 52660  53.2179 345.8114 0001644  92.0897 268.0284 15.08835245 83602,6917.895,95.438,540.897,538.623,0.0
52660.0,STARLINK-4081,PAYLOAD,2023-11-16 09:23:53,15.08838055,0.0001714,53.2184,344.3251,102.1689,257.9495,6.8628e-05,8.04e-06,0.0,0 STARLINK-4081,1 52660U 22053E   23320.39159597  .00000804  00000-0  68628-4 0  9995,2 52660  53.2184 344.3251 0001714 102.1689 257.9495 15.08838055 83652,6917.886,95.438,540.937,538.566,0.0
52660.0,STARLINK-4081,PAYLOAD,2023-11-16 18:56:12,15.08839074,0.000161,53.2179,342.5404,85.8351,274.2825,2.8406e-05,1.64e-06,0.0,0 STARLINK-4081,1 52660U 22053E   23320.78903772  .00000164  00000-0  28406-4 0  9999,2 52660  53.2179 342.5404 0001610  85.8351 274.2825 15.08839074 83712,6917.883,95.438,540.862,538.634,0.0
52660.0,STARLINK-4081,PAYLOAD,2023-11-17 10:50:04,15.08839044,0.0001568,53.2178,339.5658,84.818,275.2991,9.1411e-05,1.167e-05,0.0,0 STARLINK-4081,1 52660U 22053E   23321.45143834  .00001167  00000-0  91411-4 0  9999,2 52660  53.2178 339.5658 0001568  84.8180 275.2991 15.08839044 83812,6917.883,95.438,540.833,538.664,0.0
52660.0,STARLINK-4081,PAYLOAD,2023-11-18 07:30:04,15.0884778,0.0001553,53.2175,335.6993,88.0018,272.1152,7.8429e-05,9.61e-06,0.0,0 STARLINK-4081,1 52660U 22053E   23322.31255279  .00000961  00000-0  78429-4 0  9997,2 52660  53.2175 335.6993 0001553  88.0018 272.1152 15.08847780 83943,6917.857,95.437,540.796,538.647,0.0
52660.0,STARLINK-4081,PAYLOAD,2023-11-18 18:37:46,15.08845661,0.0001547,53.2173,333.6185,86.9182,273.1987,3.4924e-05,2.68e-06,0.0,0 STARLINK-4081,1 52660U 22053E   23322.77623381  .00000268  00000-0  34924-4 0  9992,2 52660  53.2173 333.6185 0001547  86.9182 273.1987 15.08845661 84016,6917.863,95.437,540.798,538.658,0.0
52660.0,STARLINK-4081,PAYLOAD,2023-11-19 04:10:05,15.08838082,0.0001622,53.2175,331.8347,88.891,271.2268,3.4999e-05,2.69e-06,0.0,0 STARLINK-4081,1 52660U 22053E   23323.17367861  .00000269  00000-0  34999-4 0  9998,2 52660  53.2175 331.8347 0001622  88.8910 271.2268 15.08838082 84078,6917.886,95.438,540.873,538.629,0.0
52660.0,STARLINK-4081,PAYLOAD,2023-11-19 10:31:38,15.08842388,0.0001654,53.2182,330.6448,92.8347,267.2834,4.0032e-05,3.49e-06,0.0,0 STARLINK-4081,1 52660U 22053E   23323.43863596  .00000349  00000-0  40032-4 0  9997,2 52660  53.2182 330.6448 0001654  92.8347 267.2834 15.08842388 84112,6917.873,95.437,540.882,538.594,0.0
52660.0,STARLINK-4081,PAYLOAD,2023-11-20 07:11:38,15.08842647,0.0001613,53.2174,326.7783,93.8393,266.2784,6.8596e-06,-1.79e-06,0.0,0 STARLINK-4081,1 52660U 22053E   23324.29975620 -.00000179  00000-0  68596-5 0  9992,2 52660  53.2174 326.7783 0001613  93.8393 266.2784 15.08842647 84243,6917.872,95.437,540.853,538.621,0.0
52660.0,STARLINK-4081,PAYLOAD,2023-11-20 10:22:25,15.08842431,0.00016,53.2176,326.1837,93.4945,266.623,3.4785e-06,-2.33e-06,0.0,0 STARLINK-4081,1 52660U 22053E   23324.43223639 -.00000233  00000-0  34785-5 0  9998,2 52660  53.2176 326.1837 0001600  93.4945 266.6230 15.08842431 84267,6917.873,95.437,540.845,538.631,0.0
52660.0,STARLINK-4081,PAYLOAD,2023-11-20 16:43:57,15.08840089,0.00016,53.2177,324.9941,93.3478,266.7697,-2.17e-07,-2.91e-06,0.0,0 STARLINK-4081,1 52660U 22053E   23324.69719778 -.00000291  00000-0 -21700-6 0  9999,2 52660  53.2177 324.9941 0001600  93.3478 266.7697 15.08840089 84300,6917.88,95.438,540.852,538.638,0.0
52660.0,STARLINK-4081,PAYLOAD,2023-11-21 03:51:40,15.08836268,0.0001583,53.2177,322.9128,94.1259,265.9914,2.3109e-05,8e-07,0.0,0 STARLINK-4081,1 52660U 22053E   23325.16088011  .00000080  00000-0  23109-4 0  9998,2 52660  53.2177 322.9128 0001583  94.1259 265.9914 15.08836268 84375,6917.892,95.438,540.852,538.662,0.0
52660.0,STARLINK-4081,PAYLOAD,2023-11-21 07:02:26,15.08840249,0.0001492,53.2176,322.3202,92.0662,268.0501,5.9656e-05,6.62e-06,0.0,0 STARLINK-4081,1 52660U 22053E   23325.29335713  .00000662  00000-0  59656-4 0  9998,2 52660  53.2176 322.3202 0001492  92.0662 268.0501 15.08840249 84397,6917.88,95.438,540.777,538.712,0.0
52660.0,STARLINK-4081,PAYLOAD,2023-11-21 19:45:31,15.08836367,0.0001521,53.2171,319.9415,95.9272,264.1893,7.6863e-05,9.35e-06,0.0,0 STARLINK-4081,1 52660U 22053E   23325.82327990  .00000935  00000-0  76863-4 0  9997,2 52660  53.2171 319.9415 0001521  95.9272 264.1893 15.08836367 84478,6917.891,95.438,540.809,538.704,0.0
52660.0,STARLINK-4081,PAYLOAD,2023-11-22 05:17:49,15.08842076,0.0001517,53.2174,318.1573,97.6243,262.4921,8.348e-05,1.041e-05,0.0,0 STARLINK-4081,1 52660U 22053E   23326.22071670  .00001041  00000-0  83480-4 0  9995,2 52660  53.2174 318.1573 0001517  97.6243 262.4921 15.08842076 84533,6917.874,95.437,540.788,538.69,0.0
52660.0,STARLINK-4081,PAYLOAD,2023-11-23 03:33:14,15.08836301,0.0001577,53.2182,313.9952,96.1335,263.9837,5.2892e-05,5.54e-06,0.0,0 STARLINK-4081,1 52660U 22053E   23327.14808318  .00000554  00000-0  52892-4 0  9995,2 52660  53.2182 313.9952 0001577  96.1335 263.9837 15.08836301 84679,6917.892,95.438,540.848,538.666,0.0
52660.0,STARLINK-4081,PAYLOAD,2023-11-23 08:19:23,15.08839898,0.00015,53.2172,313.0993,86.7378,273.3786,6.0684e-05,6.78e-06,0.0,0 STARLINK-4081,1 52660U 22053E   23327.34680079  .00000678  00000-0  60684-4 0  9994,2 52660  53.2172 313.0993 0001500  86.7378 273.3786 15.08839898 84708,6917.881,95.438,540.783,538.708,0.0
52660.0,STARLINK-4081,PAYLOAD,2023-11-24 08:10:10,15.08847101,0.0001555,53.218,308.6324,86.2361,273.8809,-4.1316e-06,-3.54e-06,0.0,0 STARLINK-4081,1 52660U 22053E   23328.34040000 -.00000354  00000-0 -41316-5 0  9994,2 52660  53.2180 308.6324 0001555  86.2361 273.8809 15.08847101 84855,6917.859,95.437,540.799,538.648,0.0
52660.0,STARLINK-4081,PAYLOAD,2023-11-24 22:28:39,15.08836915,0.0001599,53.2177,305.9629,89.8198,270.2977,2.9894e-05,1.88e-06,0.0,0 STARLINK-4081,1 52660U 22053E   23328.93656817  .00000188  00000-0  29894-4 0  9997,2 52660  53.2177 305.9629 0001599  89.8198 270.2977 15.08836915 84942,6917.89,95.438,540.861,538.649,0.0
52660.0,STARLINK-4081,PAYLOAD,2023-11-25 04:50:11,15.08843835,0.0001471,53.2172,304.7723,109.3468,250.7684,8.1863e-05,1.015e-05,0.0,0 STARLINK-4081,1 52660U 22053E   23329.20152154  .00001015  00000-0  81863-4 0  9997,2 52660  53.2172 304.7723 0001471 109.3468 250.7684 15.08843835 84987,6917.869,95.437,540.751,538.716,0.0
52660.0,STARLINK-4081,PAYLOAD,2023-11-25 22:19:25,15.08846934,0.0001665,53.217,301.5013,128.6615,231.4527,0.00020017,2.9e-05,0.0,0 STARLINK-4081,1 52660U 22053E   23329.93015512  .00002900  00000-0  20017-3 0  9990,2 52660  53.2170 301.5013 0001665 128.6615 231.4527 15.08846934 85093,6917.859,95.437,540.876,538.572,0.0
52660.0,STARLINK-4081,PAYLOAD,2023-11-26 03:05:33,15.08860121,0.0001497,53.2178,300.6115,118.1641,241.9503,0.00031774,4.775e-05,0.0,0 STARLINK-4081,1 52660U 22053E   23330.12886477  .00004775  00000-0  31774-3 0  9993,2 52660  53.2178 300.6115 0001497 118.1641 241.9503 15.08860121 85128,6917.819,95.436,540.719,538.648,0.0
52660.0,STARLINK-4081,PAYLOAD,2023-11-26 07:51:43,15.08873922,0.0001541,53.2165,299.7169,107.0938,253.0223,0.00049936,7.676e-05,0.0,0 STARLINK-4081,1 52660U 22053E   23330.32758217  .00007676  00000-0  49936-3 0  9997,2 52660  53.2165 299.7169 0001541 107.0938 253.0223 15.08873922 85156,6917.777,95.435,540.708,538.576,0.0
52660.0,STARLINK-4081,PAYLOAD,2023-11-26 22:10:13,15.08823479,0.0001888,53.2167,297.0428,94.6338,265.487,-0.0002463,-4.204e-05,0.0,0 STARLINK-4081,1 52660U 22053E   23330.92377309 -.00004204  00000-0 -24630-3 0  9992,2 52660  53.2167 297.0428 0001888  94.6338 265.4870 15.08823479 85243,6917.931,95.439,541.102,538.49,0.0
52660.0,STARLINK-4081,PAYLOAD,2023-11-27 04:31:46,15.0881616,0.0001432,53.2168,295.8519,98.4464,261.6691,-0.00026995,-4.579e-05,0.0,0 STARLINK-4081,1 52660U 22053E   23331.18873838 -.00004579  00000-0 -26995-3 0  9990,2 52660  53.2168 295.8519 0001432  98.4464 261.6691 15.08816160 85280,6917.953,95.439,540.809,538.828,0.0
52660.0,STARLINK-4081,PAYLOAD,2023-11-27 07:42:33,15.08816601,0.000147,53.2167,295.2568,101.2783,258.8375,-0.0002653,-4.505e-05,0.0,0 STARLINK-4081,1 52660U 22053E   23331.32121957 -.00004505  00000-0 -26530-3 0  9998,2 52660  53.2167 295.2568 0001470 101.2783 258.8375 15.08816601 85306,6917.952,95.439,540.834,538.8,0.0
52660.0,STARLINK-4081,PAYLOAD,2023-11-28 02:47:09,15.088554,0.0001451,53.2177,291.6911,89.3482,270.7677,0.00019486,2.816e-05,0.0,0 STARLINK-4081,1 52660U 22053E   23332.11608443  .00002816  00000-0  19486-3 0  9999,2 52660  53.2177 291.6911 0001451  89.3482 270.7677 15.08855400 85421,6917.833,95.437,540.702,538.695,0.0
